CCSDS_OMM_VERS,COMMENT,CREATION_DATE,ORIGINATOR,OBJECT_NAME,OBJECT_ID,CENTER_NAME,REF_FRAME,TIME_SYSTEM,MEAN_ELEMENT_THEORY,EPOCH,MEAN_MOTION,ECCENTRICITY,INCLINATION,RA_OF_ASC_NODE,ARG_OF_PERICENTER,MEAN_ANOMALY,EPHEMERIS_TYPE,CLASSIFICATION_TYPE,NORAD_CAT_ID,ELEMENT_SET_NO,REV_AT_EPOCH,BSTAR,MEAN_MOTION_DOT,MEAN_MOTION_DDOT,SEMIMAJOR_AXIS,PERIOD,APOAPSIS,PERIAPSIS,OBJECT_TYPE,RCS_SIZE,COUNTRY_CODE,LAUNCH_DATE,SITE,DECAY_DATE,FILE,GP_ID,TLE_LINE0,TLE_LINE1,TLE_LINE2
"2.0","GENERATED VIA SPACE-TRACK.ORG API","2021-01-06T18:22:45","18 SPCS","STARLINK-1694","2020-070N","EARTH","TEME","UTC","SGP4","2021-01-06T14:00:01.999872","15.02335186","0.00012740","53.0070","356.7670","57.7750","93.2552","0","U","46544","999","175","-0.00220420000000","-0.00029599","0.0000000000000","6937.834","95.850","560.583","558.815","PAYLOAD","LARGE","US","2020-10-06","AFETR","","2917332","169024922","0 STARLINK-1694","1 46544U 20070N   21006.58335648 -.00029599  00000-0 -22042-2 0  9991","2 46544  53.0070 356.7670 0001274  57.7750  93.2552 15.02335186  1752"
"2.0","GENERATED VIA SPACE-TRACK.ORG API","2021-01-07T03:30:26","18 SPCS","STARLINK-1694","2020-070N","EARTH","TEME","UTC","SGP4","2021-01-06T22:00:00.999936","15.02311243","0.00012420","53.0098","355.2771","67.1695","87.5882","0","U","46544","999","180","0.00195870000000","0.00025981","0.0000000000000","6937.908","95.852","560.635","558.911","PAYLOAD","LARGE","US","2020-10-06","AFETR","","2917408","169045653","0 STARLINK-1694","1 46544U 20070N   21006.91667824  .00025981  00000-0  19587-2 0  9991","2 46544  53.0098 355.2771 0001242  67.1695  87.5882 15.02311243  1802"
"2.0","GENERATED VIA SPACE-TRACK.ORG API","2021-01-07T07:06:10","18 SPCS","STARLINK-1694","2020-070N","EARTH","TEME","UTC","SGP4","2021-01-07T06:00:00.999648","15.02326500","0.00013920","53.0125","353.7903","58.5907","99.9571","0","U","46544","999","1526","-0.00073449000000","-0.00010068","0.0000000000000","6937.861","95.851","560.692","558.760","PAYLOAD","LARGE","US","2020-10-06","AFETR","","2917717","169053957","0 STARLINK-1694","1 46544U 20070N   21007.25001157 -.00010068  00000-0 -73449-3 0  9990","2 46544  53.0125 353.7903 0001392  58.5907  99.9571 15.02326500 15268"
"2.0","GENERATED VIA SPACE-TRACK.ORG API","2021-01-07T19:13:41","18 SPCS","STARLINK-1694","2020-070N","EARTH","TEME","UTC","SGP4","2021-01-07T14:00:01.000224","15.02343505","0.00013600","53.0155","352.3012","57.1706","105.1590","0","U","46544","999","180","-0.00230220000000","-0.00030904","0.0000000000000","6937.809","95.850","560.617","558.730","PAYLOAD","LARGE","US","2020-10-06","AFETR","","2918110","169083792","0 STARLINK-1694","1 46544U 20070N   21007.58334491 -.00030904  00000-0 -23022-2 0  9998","2 46544  53.0155 352.3012 0001360  57.1706 105.1590 15.02343505  1804"
"2.0","GENERATED VIA SPACE-TRACK.ORG API","2021-01-08T05:33:55","18 SPCS","STARLINK-1694","2020-070N","EARTH","TEME","UTC","SGP4","2021-01-07T22:00:00.999936","15.02322769","0.00013290","53.0183","350.8116","65.6948","100.4321","0","U","46544","999","180","0.00175490000000","0.00023248","0.0000000000000","6937.872","95.851","560.659","558.815","PAYLOAD","LARGE","US","2020-10-06","AFETR","","2918659","169116056","0 STARLINK-1694","1 46544U 20070N   21007.91667824  .00023248  00000-0  17549-2 0  9992","2 46544  53.0183 350.8116 0001329  65.6948 100.4321 15.02322769  1809"
"2.0","GENERATED VIA SPACE-TRACK.ORG API","2021-01-08T07:26:09","18 SPCS","STARLINK-1694","2020-070N","EARTH","TEME","UTC","SGP4","2021-01-08T06:00:00.999648","15.02331053","0.00014850","53.0200","349.3251","57.3613","112.5632","0","U","46544","999","1541","-0.00033655000000","-0.00004764","0.0000000000000","6937.847","95.851","560.742","558.682","PAYLOAD","LARGE","US","2020-10-06","AFETR","","2918976","169124818","0 STARLINK-1694","1 46544U 20070N   21008.25001157 -.00004764  00000-0 -33655-3 0  9992","2 46544  53.0200 349.3251 0001485  57.3613 112.5632 15.02331053 15419"
"2.0","GENERATED VIA SPACE-TRACK.ORG API","2021-01-08T19:55:31","18 SPCS","STARLINK-1694","2020-070N","EARTH","TEME","UTC","SGP4","2021-01-08T14:00:01.000224","15.02350006","0.00014220","53.0238","347.8359","57.4783","116.2328","0","U","46544","999","175","-0.00254170000000","-0.00034081","0.0000000000000","6937.789","95.849","560.640","558.667","PAYLOAD","LARGE","US","2020-10-06","AFETR","","2919399","169153832","0 STARLINK-1694","1 46544U 20070N   21008.58334491 -.00034081  00000-0 -25417-2 0  9999","2 46544  53.0238 347.8359 0001422  57.4783 116.2328 15.02350006  1756"
"2.0","GENERATED VIA SPACE-TRACK.ORG API","2021-01-09T05:27:18","18 SPCS","STARLINK-1694","2020-070N","EARTH","TEME","UTC","SGP4","2021-01-08T22:00:01.999584","15.02331319","0.00013820","53.0269","346.3467","65.6281","111.9473","0","U","46544","999","180","0.00132730000000","0.00017507","0.0000000000000","6937.846","95.851","560.670","558.752","PAYLOAD","LARGE","US","2020-10-06","AFETR","","2919771","169183691","0 STARLINK-1694","1 46544U 20070N   21008.91668981  .00017507  00000-0  13273-2 0  9999","2 46544  53.0269 346.3467 0001382  65.6281 111.9473 15.02331319  1808"
"2.0","GENERATED VIA SPACE-TRACK.ORG API","2021-01-09T15:06:10","18 SPCS","STARLINK-1694","2020-070N","EARTH","TEME","UTC","SGP4","2021-01-09T14:00:01.000224","15.02353713","0.00014420","53.0317","343.3714","58.4786","126.6310","0","U","46544","999","1561","-0.00266740000000","-0.00035748","0.0000000000000","6937.777","95.849","560.643","558.642","PAYLOAD","LARGE","US","2020-10-06","AFETR","","2920514","169201429","0 STARLINK-1694","1 46544U 20070N   21009.58334491 -.00035748  00000-0 -26674-2 0  9997","2 46544  53.0317 343.3714 0001442  58.4786 126.6310 15.02353713 15610"
"2.0","GENERATED VIA SPACE-TRACK.ORG API","2021-01-10T00:05:24","18 SPCS","STARLINK-1694","2020-070N","EARTH","TEME","UTC","SGP4","2021-01-09T14:00:01.000224","15.02353713","0.00014420","53.0317","343.3714","58.4786","126.6310","0","U","46544","999","175","-0.00266740000000","-0.00035748","0.0000000000000","6937.777","95.849","560.643","558.642","PAYLOAD","LARGE","US","2020-10-06","AFETR","","2920978","169232870","0 STARLINK-1694","1 46544U 20070N   21009.58334491 -.00035748  00000-0 -26674-2 0  9997","2 46544  53.0317 343.3714 0001442  58.4786 126.6310 15.02353713  1750"
"2.0","GENERATED VIA SPACE-TRACK.ORG API","2021-01-10T04:38:13","18 SPCS","STARLINK-1694","2020-070N","EARTH","TEME","UTC","SGP4","2021-01-09T22:00:01.999584","15.02338268","0.00014060","53.0348","341.8828","66.2441","122.7315","0","U","46544","999","175","0.00080593000000","0.00010515","0.0000000000000","6937.825","95.850","560.665","558.714","PAYLOAD","LARGE","US","2020-10-06","AFETR","","2921019","169254947","0 STARLINK-1694","1 46544U 20070N   21009.91668981  .00010515  00000-0  80593-3 0  9992","2 46544  53.0348 341.8828 0001406  66.2441 122.7315 15.02338268  1758"
"2.0","GENERATED VIA SPACE-TRACK.ORG API","2021-01-10T20:57:31","18 SPCS","STARLINK-1694","2020-070N","EARTH","TEME","UTC","SGP4","2021-01-10T14:00:01.000224","15.02354629","0.00014740","53.0397","338.9079","59.7940","136.7233","0","U","46544","999","175","-0.00259210000000","-0.00034752","0.0000000000000","6937.774","95.849","560.662","558.617","PAYLOAD","LARGE","US","2020-10-06","AFETR","","2921449","169285692","0 STARLINK-1694","1 46544U 20070N   21010.58334491 -.00034752  00000-0 -25921-2 0  9997","2 46544  53.0397 338.9079 0001474  59.7940 136.7233 15.02354629  1756"
"2.0","GENERATED VIA SPACE-TRACK.ORG API","2021-01-10T22:46:11","18 SPCS","STARLINK-1694","2020-070N","EARTH","TEME","UTC","SGP4","2021-01-10T22:00:00.999936","15.02343312","0.00014800","53.0425","337.4198","66.7587","133.5617","0","U","46544","999","1581","0.00033351000000","0.00004189","0.0000000000000","6937.809","95.850","560.701","558.647","PAYLOAD","LARGE","US","2020-10-06","AFETR","","2921690","169292525","0 STARLINK-1694","1 46544U 20070N   21010.91667824  .00004189  00000-0  33351-3 0  9999","2 46544  53.0425 337.4198 0001480  66.7587 133.5617 15.02343312 15816"
"2.0","GENERATED VIA SPACE-TRACK.ORG API","2021-01-11T05:39:53","18 SPCS","STARLINK-1694","2020-070N","EARTH","TEME","UTC","SGP4","2021-01-10T22:00:00.999936","15.02343312","0.00014800","53.0425","337.4198","66.7587","133.5617","0","U","46544","999","180","0.00033351000000","0.00004189","0.0000000000000","6937.809","95.850","560.701","558.647","PAYLOAD","LARGE","US","2020-10-06","AFETR","","2921762","169313537","0 STARLINK-1694","1 46544U 20070N   21010.91667824  .00004189  00000-0  33351-3 0  9999","2 46544  53.0425 337.4198 0001480  66.7587 133.5617 15.02343312  1800"
"2.0","GENERATED VIA SPACE-TRACK.ORG API","2021-01-11T14:46:10","18 SPCS","STARLINK-1694","2020-070N","EARTH","TEME","UTC","SGP4","2021-01-11T14:00:01.000224","15.02358069","0.00016180","53.0460","334.4451","61.4243","146.5055","0","U","46544","999","1591","-0.00616770000000","-0.00081779","0.0000000000000","6937.764","95.849","560.751","558.506","PAYLOAD","LARGE","US","2020-10-06","AFETR","","2922162","169322974","0 STARLINK-1694","1 46544U 20070N   21011.58334491 -.00081779  00000-0 -61677-2 0  9997","2 46544  53.0460 334.4451 0001618  61.4243 146.5055 15.02358069 15914"
"2.0","GENERATED VIA SPACE-TRACK.ORG API","2021-01-11T20:36:49","18 SPCS","STARLINK-1694","2020-070N","EARTH","TEME","UTC","SGP4","2021-01-11T14:00:01.000224","15.02358069","0.00016180","53.0460","334.4451","61.4243","146.5055","0","U","46544","999","175","-0.00616770000000","-0.00081779","0.0000000000000","6937.764","95.849","560.751","558.506","PAYLOAD","LARGE","US","2020-10-06","AFETR","","2922230","169345752","0 STARLINK-1694","1 46544U 20070N   21011.58334491 -.00081779  00000-0 -61677-2 0  9997","2 46544  53.0460 334.4451 0001618  61.4243 146.5055 15.02358069  1751"
